ONEWEB-0634             
1 56075U 23043AF  25209.60101913  .00000103  00000+0  23881-3 0  9992
2 56075  87.9089 323.7580 0001637  93.4842 266.6476 13.15549723113856
ONEWEB-0635             
1 56076U 23043AG  25209.59626640  .00000066  00000+0  14137-3 0  9992
2 56076  87.9058 323.7332 0002151 105.9014 254.2354 13.15547858113888
ONEWEB-0636             
1 56077U 23043AH  25209.58833807  .00000054  00000+0  10870-3 0  9994
2 56077  87.9068 323.7475 0002114 104.6449 255.4916 13.15550012113866
ONEWEB-0637             
1 56078U 23043AJ  25209.35384494 -.00000029  00000+0 -11163-3 0  9993
2 56078  87.9077 323.8046 0001797 110.4903 249.6420 13.15547129113857
ONEWEB-0647             
1 56079U 23043AK  25209.34908270 -.00000055  00000+0 -18097-3 0  9999
2 56079  87.9085 323.8149 0002128  99.7161 260.4210 13.15549640113842
ONEWEB-0651             
1 56080U 23043AL  25209.34433183 -.00000074  00000+0 -23123-3 0  9994
2 56080  87.9089 323.8050 0001982 108.4325 251.7021 13.15549165115045
ONEWEB-0718             
1 56081U 23043AM  25209.33957019 -.00000042  00000+0 -14688-3 0  9994
2 56081  87.9088 323.7888 0001497  93.1672 266.9629 13.15549943113852
ONEWEB-0561             
1 56710U 23068A   25209.64051110  .00000037  00000+0  59462-4 0  9993
2 56710  87.9282 338.9185 0002358 104.3574 255.7821 13.20769432106796
